AMC-11 (GE-11)          
1 28252U 04017A   17117.63471220  .00000057  00000-0  00000-0 0  9995
2 28252   0.0236 329.2628 0002593  72.5884 271.4431  1.00271585 47234
INTELSAT 10-02          
1 28358U 04022A   17117.81437965 -.00000024  00000-0  00000-0 0  9991
2 28358   0.0153 175.9473 0000462 116.6379 215.5888  1.00271268 47182
APSTAR 5 (TELSTAR 18)   
1 28364U 04024A   17117.80604922 -.00000307  00000-0  00000-0 0  9992
2 28364   0.0371 100.1185 0003166 303.6607 240.3729  1.00272600 47155
ANIK F2                 
1 28378U 04027A   17117.50219032 -.00000062  00000-0  00000-0 0  9999
2 28378   0.0255 347.1699 0000396 260.3333  37.8886  1.00271537  7822
AMAZONAS 1              
1 28393U 04031A   17117.29146619 -.00000256  00000-0  00000-0 0  9992
2 28393   1.6466  83.9017 0004038 320.7703 239.5517  1.00271648 46602
AMC-15                  
1 28446U 04041A   17117.41694934 -.00000100  00000-0  00000-0 0  9992
2 28446   0.0788  70.8686 0001712 306.8840 242.8742  1.00271398 45913
AMC-16                  
1 28472U 04048A   17117.48285421 -.00000218  00000-0  00000-0 0  9992
2 28472   0.0219 341.5826 0002794  75.7071 247.2063  1.00272091 45347
NSS-10 (AMC-12)         
1 28526U 05003A   17117.73270097 -.00000263  00000-0  00000-0 0  9995
2 28526   0.0223 307.8152 0002611  84.6656  49.7424  1.00270331 44851
XTAR-EUR                
1 28542U 05005A   17117.32091317  .00000139  00000-0  00000-0 0  9997
2 28542   0.0388  84.7742 0002643 305.5684 329.6808  1.00271994 44748
XM-3 (RHYTHM)           
1 28626U 05008A   17117.47436293 -.00000217  00000-0  00000-0 0  9993
2 28626   0.0450  66.9409 0000346 174.8171  59.5523  1.00270635 44596
INMARSAT 4-F1           
1 28628U 05009A   17117.03392840 -.00000272  00000-0  00000-0 0  9998
2 28628   2.8709  11.2869 0002823  29.9554 329.6820  1.00271451 44201
APSTAR 6                
1 28638U 05012A   17117.90572722 -.00000331  00000-0  00000-0 0  9994
2 28638   0.0064 151.8062 0002354 263.8070 260.5354  1.00271747 68943
SPACEWAY 1              
1 28644U 05015A   17117.35305598 -.00000114  00000-0  00000-0 0  9997
2 28644   0.0080 201.0782 0000376  66.0325 332.6012  1.00272836 13125
DIRECTV 8               
1 28659U 05019A   17116.68338213 -.00000126  00000-0  00000-0 0  9995
2 28659   0.0111 265.2696 0003143 133.0633 321.6895  1.00269929 43673
GALAXY 28 (G-28)        
1 28702U 05022A   17117.43521699 -.00000197  00000-0  00000-0 0  9992
2 28702   0.0061 191.6243 0001605 202.3874 249.2715  1.00270588 18642
EXPRESS-AM3             
1 28707U 05023A   17117.98029328 -.00000335  00000-0  00000-0 0  9994
2 28707   0.0018 157.7792 0001205 255.5365 258.7300  1.00269697 43385
THAICOM 4               
1 28786U 05028A   17117.91212845 -.00000376  00000-0  00000-0 0  9992
2 28786   0.0117 274.7736 0001953 112.0065 277.1460  1.00268213 18819
GALAXY 14 (G-14)        
1 28790U 05030A   17117.43868888  .00000025  00000-0  00000-0 0  9991
2 28790   0.0109 236.7748 0002121 141.2559 230.5041  1.00272833 42836
ANIK F1R                
1 28868U 05036A   17117.04493699 -.00000085  00000-0  00000-0 0  9991
2 28868   0.0562  71.6647 0002884 323.4250  89.0143  1.00271681 13048
GALAXY 15 (G-15)        
1 28884U 05041A   17117.63438270  .00000066  00000-0  00000-0 0  9992
2 28884   0.0250  92.8477 0001657 315.0810 263.2601  1.00273269 42155
SYRACUSE 3A             
1 28885U 05041B   17117.90644469  .00000116  00000-0  00000-0 0  9998
2 28885   0.0146 316.4540 0003003  82.3296 190.5886  1.00272428 42293
INMARSAT 4-F2           
1 28899U 05044A   17117.25403834 -.00000001  00000-0  00000-0 0  9997
2 28899   2.5645  11.1945 0002504  28.9255 330.6550  1.00272957 42059
TELKOM 2                
1 28902U 05046A   17112.60952086 -.00000371  00000-0  00000-0 0  9996
2 28902   0.0266 242.9679 0000869 181.3340 123.8784  1.00267947 41722
SPACEWAY 2              
1 28903U 05046B   17117.42410554 -.00000138  00000-0  00000-0 0  9992
2 28903   0.0049  70.7398 0000043  13.8276 184.6348  1.00271174 17875
INSAT-4A                
1 28911U 05049A   17116.17395585 -.00000175  00000-0  00000-0 0  9992
2 28911   0.1043  94.1062 0003408 233.5604  32.3220  1.00271444 41618
METEOSAT-9 (MSG-2)      
1 28912U 05049B   17117.16504358  .00000051  00000-0  00000-0 0  9995
2 28912   2.1048  70.8043 0000560 129.4061  83.7904  1.00269537 41600
EUTELSAT 172A (GE-23)   
1 28924U 05052A   17117.76842414 -.00000019  00000-0  00000-0 0  9991
2 28924   0.0703  10.8219 0005754  25.2854 268.4485  1.00271679 41516
ECHOSTAR 10             
1 28935U 06003A   17117.42896751 -.00000067  00000-0  00000-0 0  9999
2 28935   0.0615  74.0173 0001548 346.7063 199.1105  1.00270856 41011
HIMAWARI-7 (MTSAT-2)    
1 28937U 06004A   17117.84214854 -.00000255  00000-0  00000-0 0  9995
2 28937   0.0692  92.9658 0003474 306.2616 264.9760  1.00274084 41015
SPAINSAT                
1 28945U 06007A   17117.48431187 -.00000228  00000-0  00000-0 0  9997
2 28945   0.0173 210.3523 0002243 182.6197 327.0499  1.00271268 40760
EUTELSAT HOT BIRD 13E   
1 28946U 06007B   17117.36526661  .00000075  00000-0  00000-0 0  9996
2 28946   0.0601 261.0072 0002876 185.4509 273.5828  1.00269346 40832
JCSAT-5A                
1 29045U 06010A   17117.81793146 -.00000341  00000-0  00000-0 0  9992
2 29045   0.0107 273.1860 0001857 152.7965 216.5010  1.00270140 40311
ASTRA 1KR               
1 29055U 06012A   17117.83105093  .00000107  00000-0  00000-0 0  9994
2 29055   0.0466 276.8626 0001146  45.2221 212.2600  1.00270484 12264
GOES 13                 
1 29155U 06018A   17116.61117068 -.00000261  00000-0  00000-0 0  9993
2 29155   0.2882 273.0145 0004779 151.5840 295.4602  1.00276158  9925
EUTELSAT 113 WEST A     
1 29162U 06020A   17116.71700910 -.00000048  00000-0  00000-0 0  9992
2 29162   0.0112 330.6056 0002968  71.1814 318.2445  1.00272935 40006
THAICOM 5               
1 29163U 06020B   17117.91577310 -.00000134  00000-0  00000-0 0  9998
2 29163   0.0284 271.5765 0003396 102.7062 249.9736  1.00270607 40039
GALAXY 16 (G-16)        
1 29236U 06023A   17117.37549479 -.00000139  00000-0  00000-0 0  9992
2 29236   0.0137 249.4336 0002744 159.5844 202.7179  1.00273983 39765
EUTELSAT HOT BIRD 13B   
1 29270U 06032A   17117.87757578  .00000073  00000-0  00000-0 0  9992
2 29270   0.0853 323.7507 0005202  55.9991 165.2138  1.00269811 13864
JCSAT-3A                
1 29272U 06033A   17117.92285122 -.00000358  00000-0  00000-0 0  9999
2 29272   0.0152 267.6496 0001703 146.7151 261.9523  1.00268065 14278
SYRACUSE 3B             
1 29273U 06033B   17117.95206821 -.00000057  00000-0  00000-0 0  9998
2 29273   0.0117 305.8412 0004801  73.2201 174.6100  1.00272538 39251
KOREASAT 5 (MUGUNGWHA 5)
1 29349U 06034A   17117.83243694 -.00000371  00000-0  00000-0 0  9998
2 29349   0.0159  73.3539 0000675  38.0463 157.3403  1.00270107  7857
ZHONGXING-22A           
1 29398U 06038A   17117.90552795 -.00000330  00000-0  00000-0 0  9994
2 29398   5.7030  58.0665 0001808 254.5274 331.2123  1.00269188 38948
DIRECTV 9S              
1 29494U 06043A   17117.42410554 -.00000126  00000-0  00000-0 0  9993
2 29494   0.0134 226.1841 0003130 166.9350 234.0600  1.00272237 17938
OPTUS D1                
1 29495U 06043B   17117.72549699 -.00000123  00000-0  00000-0 0  9997
2 29495   0.0559  82.6865 0003257 310.8258 243.5612  1.00271121 38659
XM-4 (BLUES)            
1 29520U 06049A   17117.43382691 -.00000035  00000-0  00000-0 0  9999
2 29520   0.0031  28.1297 0000042  71.0407 157.3869  1.00271409 38529
BADR-4                  
1 29526U 06051A   17117.87271644  .00000131  00000-0  00000-0 0  9997
2 29526   0.0517 336.9457 0005039  20.5747 198.6813  1.00271332 17843
FENGYUN 2D              
1 29640U 06053A   17117.90188513 -.00000371  00000-0  10000-3 0  9993
2 29640   4.3605  64.6207 0004790 342.3052 257.6462  1.00276521 38091
WILDBLUE-1              
1 29643U 06054A   17117.50219032 -.00000061  00000-0  00000-0 0  9996
2 29643   0.0414  97.9911 0001463 294.5324 252.7651  1.00271160 20338
AMC-18                  
1 29644U 06054B   17117.42896751 -.00000101  00000-0  00000-0 0  9992
2 29644   0.0132  78.3974 0002385 317.0840 229.5778  1.00269595 38123
MEASAT-3                
1 29648U 06056A   17117.80227965 -.00000255  00000-0  00000-0 0  9995
2 29648   0.0631 111.3791 0002369 340.0316 144.9012  1.00271711 16997
INSAT-4B                
1 30793U 07007A   17117.91091101 -.00000272  00000-0  00000-0 0  9997
2 30793   0.0102 238.0917 0006804 182.6519 216.7794  1.00273110  8747
SKYNET 5A               
1 30794U 07007B   17117.79952494 -.00000285  00000-0  00000-0 0  9999
2 30794   0.0706  15.9449 0003541  24.0039 199.0655  1.00272385 37239
ANIK F3                 
1 31102U 07009A   17117.38881730 -.00000013  00000-0  00000-0 0  9993
2 31102   0.0113 269.6619 0001772 130.0690 197.1072  1.00273748 36861
ASTRA 1L                
1 31306U 07016A   17117.87757578  .00000106  00000-0  00000-0 0  9995
2 31306   0.0648 307.2017 0003507  42.3918 201.5543  1.00269925 11618
GALAXY 17 (G-17)        
1 31307U 07016B   17117.45037390 -.00000186  00000-0  00000-0 0  9992
2 31307   0.0491  57.1226 0003199 345.3070 244.3425  1.00272232 36481
ZHONGXING-6B            
1 31800U 07031A   17117.91197160 -.00000375  00000-0  00000-0 0  9990
2 31800   0.0154 291.8261 0002141  84.2496 283.8270  1.00272103 35974
DIRECTV 10              
1 31862U 07032A   17116.68879987 -.00000114  00000-0  00000-0 0  9997
2 31862   0.0137 292.6008 0000413 351.9429  75.4605  1.00273325 12161
SPACEWAY 3              
1 32018U 07036A   17117.37549479 -.00000163  00000-0  00000-0 0  9996
2 32018   0.0452  73.0857 0000335 196.3082 346.3893  1.00271258 13126
BSAT-3A                 
1 32019U 07036B   17117.09682664 -.00000362  00000-0  00000-0 0  9991
2 32019   0.0374 193.0130 0000772  61.0105 105.9763  1.00270919 17038
